ONEWEB-0593             
1 54659U 22166T   25228.27888668 -.00000096  00000+0 -26430-3 0  9992
2 54659  87.9258 304.8224 0002183 100.8424 259.2956 13.21826984131733
ONEWEB-0594             
1 54660U 22166U   25227.91933445 -.00000015  00000+0 -68900-4 0  9998
2 54660  87.9259 304.9093 0002027  95.9507 264.1858 13.21826358131230
ONEWEB-0595             
1 54661U 22166V   25227.44306470  .00000010  00000+0 -64723-5 0  9993
2 54661  87.9259 304.9802 0001817  98.1814 261.9526 13.21827548131612
ONEWEB-0596             
1 54662U 22166W   25227.64335048  .00000019  00000+0  13680-4 0  9992
2 54662  87.9259 304.9552 0001973 100.7868 259.3488 13.21826662131172
ONEWEB-0597             
1 54663U 22166X   25228.23001153  .00000168  00000+0  37576-3 0  9990
2 54663  87.9260 304.8420 0002142 100.1970 259.9405 13.21827144131727
ONEWEB-0600             
1 54664U 22166Y   25228.43974592 -.00000030  00000+0 -10436-3 0  9995
2 54664  87.9251 304.7952 0002177  96.4735 263.6647 13.21827167131726
ONEWEB-0601             
1 54665U 22166Z   25228.28044731 -.00000037  00000+0 -12207-3 0  9997
2 54665  87.9258 304.8423 0002311 103.5907 256.5485 13.21828022131888
ONEWEB-0602             
1 54666U 22166AA  25227.48850607  .00000084  00000+0  17288-3 0  9990
2 54666  87.9262 305.0009 0002472  94.3362 265.8055 13.21875680131638
ONEWEB-0603             
1 54667U 22166AB  25228.25048369 -.00000009  00000+0 -53436-4 0  9996
2 54667  87.9255 304.7854 0002293 100.8447 259.2945 13.21828586131653
ONEWEB-0604             
1 54668U 22166AC  25228.23789501  .00000150  00000+0  33229-3 0  9997
2 54668  87.9259 304.8109 0002261  97.2940 262.8451 13.21827560131624
ONEWEB-0605             
1 54669U 22166AD  25228.45866975  .00000042  00000+0  71197-4 0  9990
2 54669  87.9257 304.7975 0002448 112.4325 247.7068 13.21823076131722
ONEWEB-0606             
1 54670U 22166AE  25228.25366334  .00000017  00000+0  90266-5 0  9995
2 54670  87.9257 304.8494 0001899  98.0992 262.0358 13.21827473131748
ONEWEB-0607             
1 54671U 22166AF  25228.44765560  .00000038  00000+0  61313-4 0  9994
2 54671  87.9256 304.7747 0002194  99.6837 260.4544 13.21825911131746
ONEWEB-0608             
1 54672U 22166AG  25228.22682210  .00000159  00000+0  35288-3 0  9996
2 54672  87.9250 304.8042 0002525 104.9394 255.2020 13.21828868131729
ONEWEB-0610             
1 54673U 22166AH  25228.28361308  .00000245  00000+0  56220-3 0  9990
2 54673  87.9256 304.8278 0002547 106.7583 253.3830 13.21823180131642
ONEWEB-0611             
1 54674U 22166AJ  25228.27729808 -.00000092  00000+0 -25335-3 0  9998
2 54674  87.9259 304.8259 0001823  92.9057 267.2285 13.21827536131639
ONEWEB-0612             
1 54675U 22166AK  25227.91145184  .00000002  00000+0 -25522-4 0  9997
2 54675  87.9258 304.8758 0002233 101.1941 258.9444 13.21826837131103
