[{"OBJECT_NAME":"ONEWEB-0593","OBJECT_ID":"2022-166T","EPOCH":"2025-08-16T06:41:35.809152","MEAN_MOTION":13.21826984,"ECCENTRICITY":0.0002183,"INCLINATION":87.9258,"RA_OF_ASC_NODE":304.8224,"ARG_OF_PERICENTER":100.8424,"MEAN_ANOMALY":259.2956,"EPHEMERIS_TYPE":0,"CLASSIFICATION_TYPE":"U","NORAD_CAT_ID":54659,"ELEMENT_SET_NO":999,"REV_AT_EPOCH":13173,"BSTAR":-0.0002643,"MEAN_MOTION_DOT":-9.6e-7,"MEAN_MOTION_DDOT":0},{"OBJECT_NAME":"ONEWEB-0594","OBJECT_ID":"2022-166U","EPOCH":"2025-08-15T22:03:50.496480","MEAN_MOTION":13.21826358,"ECCENTRICITY":0.0002027,"INCLINATION":87.9259,"RA_OF_ASC_NODE":304.9093,"ARG_OF_PERICENTER":95.9507,"MEAN_ANOMALY":264.1858,"EPHEMERIS_TYPE":0,"CLASSIFICATION_TYPE":"U","NORAD_CAT_ID":54660,"ELEMENT_SET_NO":999,"REV_AT_EPOCH":13123,"BSTAR":-6.89e-5,"MEAN_MOTION_DOT":-1.5e-7,"MEAN_MOTION_DDOT":0},{"OBJECT_NAME":"ONEWEB-0595","OBJECT_ID":"2022-166V","EPOCH":"2025-08-15T10:38:00.790080","MEAN_MOTION":13.21827548,"ECCENTRICITY":0.0001817,"INCLINATION":87.9259,"RA_OF_ASC_NODE":304.9802,"ARG_OF_PERICENTER":98.1814,"MEAN_ANOMALY":261.9526,"EPHEMERIS_TYPE":0,"CLASSIFICATION_TYPE":"U","NORAD_CAT_ID":54661,"ELEMENT_SET_NO":999,"REV_AT_EPOCH":13161,"BSTAR":-6.4723e-6,"MEAN_MOTION_DOT":1.0e-7,"MEAN_MOTION_DDOT":0},{"OBJECT_NAME":"ONEWEB-0596","OBJECT_ID":"2022-166W","EPOCH":"2025-08-15T15:26:25.481472","MEAN_MOTION":13.21826662,"ECCENTRICITY":0.0001973,"INCLINATION":87.9259,"RA_OF_ASC_NODE":304.9552,"ARG_OF_PERICENTER":100.7868,"MEAN_ANOMALY":259.3488,"EPHEMERIS_TYPE":0,"CLASSIFICATION_TYPE":"U","NORAD_CAT_ID":54662,"ELEMENT_SET_NO":999,"REV_AT_EPOCH":13117,"BSTAR":1.368e-5,"MEAN_MOTION_DOT":1.9e-7,"MEAN_MOTION_DDOT":0},{"OBJECT_NAME":"ONEWEB-0597","OBJECT_ID":"2022-166X","EPOCH":"2025-08-16T05:31:12.996192","MEAN_MOTION":13.21827144,"ECCENTRICITY":0.0002142,"INCLINATION":87.926,"RA_OF_ASC_NODE":304.842,"ARG_OF_PERICENTER":100.197,"MEAN_ANOMALY":259.9405,"EPHEMERIS_TYPE":0,"CLASSIFICATION_TYPE":"U","NORAD_CAT_ID":54663,"ELEMENT_SET_NO":999,"REV_AT_EPOCH":13172,"BSTAR":0.00037576,"MEAN_MOTION_DOT":1.68e-6,"MEAN_MOTION_DDOT":0},{"OBJECT_NAME":"ONEWEB-0600","OBJECT_ID":"2022-166Y","EPOCH":"2025-08-16T10:33:14.047488","MEAN_MOTION":13.21827167,"ECCENTRICITY":0.0002177,"INCLINATION":87.9251,"RA_OF_ASC_NODE":304.7952,"ARG_OF_PERICENTER":96.4735,"MEAN_ANOMALY":263.6647,"EPHEMERIS_TYPE":0,"CLASSIFICATION_TYPE":"U","NORAD_CAT_ID":54664,"ELEMENT_SET_NO":999,"REV_AT_EPOCH":13172,"BSTAR":-0.00010436,"MEAN_MOTION_DOT":-3.0e-7,"MEAN_MOTION_DDOT":0},{"OBJECT_NAME":"ONEWEB-0601","OBJECT_ID":"2022-166Z","EPOCH":"2025-08-16T06:43:50.647584","MEAN_MOTION":13.21828022,"ECCENTRICITY":0.0002311,"INCLINATION":87.9258,"RA_OF_ASC_NODE":304.8423,"ARG_OF_PERICENTER":103.5907,"MEAN_ANOMALY":256.5485,"EPHEMERIS_TYPE":0,"CLASSIFICATION_TYPE":"U","NORAD_CAT_ID":54665,"ELEMENT_SET_NO":999,"REV_AT_EPOCH":13188,"BSTAR":-0.00012207,"MEAN_MOTION_DOT":-3.7e-7,"MEAN_MOTION_DDOT":0},{"OBJECT_NAME":"ONEWEB-0602","OBJECT_ID":"2022-166AA","EPOCH":"2025-08-15T11:43:26.924448","MEAN_MOTION":13.2187568,"ECCENTRICITY":0.0002472,"INCLINATION":87.9262,"RA_OF_ASC_NODE":305.0009,"ARG_OF_PERICENTER":94.3362,"MEAN_ANOMALY":265.8055,"EPHEMERIS_TYPE":0,"CLASSIFICATION_TYPE":"U","NORAD_CAT_ID":54666,"ELEMENT_SET_NO":999,"REV_AT_EPOCH":13163,"BSTAR":0.00017288,"MEAN_MOTION_DOT":8.4e-7,"MEAN_MOTION_DDOT":0},{"OBJECT_NAME":"ONEWEB-0603","OBJECT_ID":"2022-166AB","EPOCH":"2025-08-16T06:00:41.790816","MEAN_MOTION":13.21828586,"ECCENTRICITY":0.0002293,"INCLINATION":87.9255,"RA_OF_ASC_NODE":304.7854,"ARG_OF_PERICENTER":100.8447,"MEAN_ANOMALY":259.2945,"EPHEMERIS_TYPE":0,"CLASSIFICATION_TYPE":"U","NORAD_CAT_ID":54667,"ELEMENT_SET_NO":999,"REV_AT_EPOCH":13165,"BSTAR":-5.3436e-5,"MEAN_MOTION_DOT":-9.0e-8,"MEAN_MOTION_DDOT":0},{"OBJECT_NAME":"ONEWEB-0604","OBJECT_ID":"2022-166AC","EPOCH":"2025-08-16T05:42:34.128864","MEAN_MOTION":13.2182756,"ECCENTRICITY":0.0002261,"INCLINATION":87.9259,"RA_OF_ASC_NODE":304.8109,"ARG_OF_PERICENTER":97.294,"MEAN_ANOMALY":262.8451,"EPHEMERIS_TYPE":0,"CLASSIFICATION_TYPE":"U","NORAD_CAT_ID":54668,"ELEMENT_SET_NO":999,"REV_AT_EPOCH":13162,"BSTAR":0.00033229,"MEAN_MOTION_DOT":1.5e-6,"MEAN_MOTION_DDOT":0},{"OBJECT_NAME":"ONEWEB-0605","OBJECT_ID":"2022-166AD","EPOCH":"2025-08-16T11:00:29.066400","MEAN_MOTION":13.21823076,"ECCENTRICITY":0.0002448,"INCLINATION":87.9257,"RA_OF_ASC_NODE":304.7975,"ARG_OF_PERICENTER":112.4325,"MEAN_ANOMALY":247.7068,"EPHEMERIS_TYPE":0,"CLASSIFICATION_TYPE":"U","NORAD_CAT_ID":54669,"ELEMENT_SET_NO":999,"REV_AT_EPOCH":13172,"BSTAR":7.1197e-5,"MEAN_MOTION_DOT":4.2e-7,"MEAN_MOTION_DDOT":0},{"OBJECT_NAME":"ONEWEB-0606","OBJECT_ID":"2022-166AE","EPOCH":"2025-08-16T06:05:16.512576","MEAN_MOTION":13.21827473,"ECCENTRICITY":0.0001899,"INCLINATION":87.9257,"RA_OF_ASC_NODE":304.8494,"ARG_OF_PERICENTER":98.0992,"MEAN_ANOMALY":262.0358,"EPHEMERIS_TYPE":0,"CLASSIFICATION_TYPE":"U","NORAD_CAT_ID":54670,"ELEMENT_SET_NO":999,"REV_AT_EPOCH":13174,"BSTAR":9.0266e-6,"MEAN_MOTION_DOT":1.7e-7,"MEAN_MOTION_DDOT":0},{"OBJECT_NAME":"ONEWEB-0607","OBJECT_ID":"2022-166AF","EPOCH":"2025-08-16T10:44:37.443840","MEAN_MOTION":13.21825911,"ECCENTRICITY":0.0002194,"INCLINATION":87.9256,"RA_OF_ASC_NODE":304.7747,"ARG_OF_PERICENTER":99.6837,"MEAN_ANOMALY":260.4544,"EPHEMERIS_TYPE":0,"CLASSIFICATION_TYPE":"U","NORAD_CAT_ID":54671,"ELEMENT_SET_NO":999,"REV_AT_EPOCH":13174,"BSTAR":6.1313e-5,"MEAN_MOTION_DOT":3.8e-7,"MEAN_MOTION_DDOT":0},{"OBJECT_NAME":"ONEWEB-0608","OBJECT_ID":"2022-166AG","EPOCH":"2025-08-16T05:26:37.429440","MEAN_MOTION":13.21828868,"ECCENTRICITY":0.0002525,"INCLINATION":87.925,"RA_OF_ASC_NODE":304.8042,"ARG_OF_PERICENTER":104.9394,"MEAN_ANOMALY":255.202,"EPHEMERIS_TYPE":0,"CLASSIFICATION_TYPE":"U","NORAD_CAT_ID":54672,"ELEMENT_SET_NO":999,"REV_AT_EPOCH":13172,"BSTAR":0.00035288,"MEAN_MOTION_DOT":1.59e-6,"MEAN_MOTION_DDOT":0},{"OBJECT_NAME":"ONEWEB-0610","OBJECT_ID":"2022-166AH","EPOCH":"2025-08-16T06:48:24.170112","MEAN_MOTION":13.2182318,"ECCENTRICITY":0.0002547,"INCLINATION":87.9256,"RA_OF_ASC_NODE":304.8278,"ARG_OF_PERICENTER":106.7583,"MEAN_ANOMALY":253.383,"EPHEMERIS_TYPE":0,"CLASSIFICATION_TYPE":"U","NORAD_CAT_ID":54673,"ELEMENT_SET_NO":999,"REV_AT_EPOCH":13164,"BSTAR":0.0005622,"MEAN_MOTION_DOT":2.45e-6,"MEAN_MOTION_DDOT":0},{"OBJECT_NAME":"ONEWEB-0611","OBJECT_ID":"2022-166AJ","EPOCH":"2025-08-16T06:39:18.554112","MEAN_MOTION":13.21827536,"ECCENTRICITY":0.0001823,"INCLINATION":87.9259,"RA_OF_ASC_NODE":304.8259,"ARG_OF_PERICENTER":92.9057,"MEAN_ANOMALY":267.2285,"EPHEMERIS_TYPE":0,"CLASSIFICATION_TYPE":"U","NORAD_CAT_ID":54674,"ELEMENT_SET_NO":999,"REV_AT_EPOCH":13163,"BSTAR":-0.00025335,"MEAN_MOTION_DOT":-9.2e-7,"MEAN_MOTION_DDOT":0},{"OBJECT_NAME":"ONEWEB-0612","OBJECT_ID":"2022-166AK","EPOCH":"2025-08-15T21:52:29.438976","MEAN_MOTION":13.21826837,"ECCENTRICITY":0.0002233,"INCLINATION":87.9258,"RA_OF_ASC_NODE":304.8758,"ARG_OF_PERICENTER":101.1941,"MEAN_ANOMALY":258.9444,"EPHEMERIS_TYPE":0,"CLASSIFICATION_TYPE":"U","NORAD_CAT_ID":54675,"ELEMENT_SET_NO":999,"REV_AT_EPOCH":13110,"BSTAR":-2.5522e-5,"MEAN_MOTION_DOT":2.0e-8,"MEAN_MOTION_DDOT":0}]
